HORYU-4                 
1 41340U 16012D   20257.84655919  .00000381  00000-0  22042-4 0  9991
2 41340  31.0047 128.8466 0014029 305.4422  54.4904 15.01553099251170
E-ST@R-II               
1 41459U 16025D   20257.79889123  .00001227  00000-0  65793-4 0  9996
2 41459  98.1113  12.4383 0163086 274.2651  83.9979 15.06623060240741
AAUSAT 4                
1 41460U 16025E   20257.79843428  .00001684  00000-0  85717-4 0  9991
2 41460  98.1088  15.0908 0151909 261.9509  96.4485 15.09015490240962
BEESAT-4                
1 41619U 16040W   20257.66474487  .00001013  00000-0  44368-4 0  9998
2 41619  97.3115 315.0825 0009851 221.6237 138.4252 15.24215852222836
CANX-7                  
1 41788U 16059F   20257.86434049  .00005582  00000-0  75079-3 0  9994
2 41788  98.2574 348.0272 0023397  27.4927 332.7507 14.79480609212882
RAVAN                   
1 41849U 16067B   20257.88000983 -.00000002  00000-0  50050-5 0  9996
2 41849  97.9420   9.2757 0007262 321.0623  39.0075 14.98636992209869
CELTEE 1                
1 41850U 16067C   20257.82360215 -.00000304  00000-0 -20962-4 0  9993
2 41850  97.9334   6.6798 0008045 320.7737  39.2900 14.97220538209721
OPTICUBE 04             
1 41851U 16067D   20257.83642875  .00000089  00000-0  13025-4 0  9990
2 41851  97.9319   6.2627 0007908 322.2010  37.8655 14.96947496209707
AEROCUBE 8D             
1 41852U 16067E   20257.85289887  .00000715  00000-0  67485-4 0  9998
2 41852  97.9331   6.1206 0008364 323.9972  36.0685 14.96953641209686
AEROCUBE 8C             
1 41853U 16067F   20257.88652273 -.00000325  00000-0 -23015-4 0  9995
2 41853  97.9325   6.0515 0009250 323.8174  36.2420 14.96917495209686
PROMETHEUS 2-1          
1 41854U 16067G   20257.83654177  .00000298  00000-0  31045-4 0  9995
2 41854  97.9328   6.3866 0009248 321.0369  39.0185 14.97258287209693
PROMETHEUS 2-3          
1 41855U 16067H   20257.83642465  .00000289  00000-0  30185-4 0  9997
2 41855  97.9331   6.4236 0009429 321.3892  38.6654 14.97267213209690
INS-1B                  
1 41954U 17008G   20257.73863941  .00000976  00000-0  41945-4 0  9995
2 41954  97.3466 320.5308 0008740   1.3121 358.8138 15.24974389198824
BGUSAT                  
1 41999U 17008BD  20257.76910619  .00001665  00000-0  63959-4 0  9997
2 41999  97.3591 325.2138 0007766  10.8857 349.2549 15.27830950198438
DIDO-2                  
1 42000U 17008BE  20257.72074481  .00000679  00000-0  30365-4 0  9994
2 42000  97.3474 320.9844 0008784  20.6641 339.4950 15.24612972198211
PEASSS                  
1 42015U 17008BV  20257.76238193  .00000848  00000-0  35962-4 0  9992
2 42015  97.3503 322.8091 0006783  26.5267 333.6318 15.25789607198812
AL-FARABI 1             
1 42016U 17008BW  20257.73352985  .00001129  00000-0  45760-4 0  9996
2 42016  97.3533 323.9750 0006576  26.2059 333.9511 15.26680616198994
NAYIF-1 (EO-88)         
1 42017U 17008BX  20257.70984865  .00001143  00000-0  46235-4 0  9996
2 42017  97.3528 323.9617 0006611  25.5266 334.6298 15.26723392199016
UCLSAT                  
1 42765U 17036A   20257.88516904  .00000905  00000-0  40491-4 0  9994
2 42765  97.2926 309.7192 0012931  77.1757 283.0925 15.23703990180043
LITUANICASAT-2          
1 42768U 17036D   20257.89282790  .00001549  00000-0  65897-4 0  9993
2 42768  97.2986 309.8461 0016083  67.5354 292.7585 15.24373569179313
AALTO-1                 
1 42775U 17036L   20257.88588134  .00000569  00000-0  27857-4 0  9996
2 42775  97.2900 307.2830 0015423  71.4233 288.8677 15.21960152179120
URSA MAIOR              
1 42776U 17036M   20257.86428233  .00000604  00000-0  29247-4 0  9993
2 42776  97.2913 307.5856 0015226  71.2283 289.0604 15.22152951179135
COMPASS 2               
1 42777U 17036N   20257.66271679  .00001270  00000-0  54907-4 0  9993
2 42777  97.2973 310.0047 0013767  69.8485 290.4233 15.24167198179234
DIAMOND RED             
1 42783U 17036U   20257.65768787  .00000752  00000-0  34836-4 0  9993
2 42783  97.2926 308.6734 0013675  79.8853 280.3926 15.22985030179174
PEGASUS                 
1 42784U 17036V   20257.73163434  .00000860  00000-0  38994-4 0  9990
2 42784  97.2931 309.2235 0013505  78.5144 281.7609 15.23384067179217
DIAMOND GREEN           
1 42785U 17036W   20257.72221555  .00000759  00000-0  35150-4 0  9997
2 42785  97.2928 308.7744 0013581  80.2612 280.0158 15.22980486179179
DIAMOND BLUE            
1 42786U 17036X   20257.85279041  .00000723  00000-0  33597-4 0  9999
2 42786  97.2927 308.8959 0013422  80.0817 280.1935 15.22985112179273
NUDTSAT                 
1 42787U 17036Y   20257.90739375  .00001631  00000-0  68517-4 0  9996
2 42787  97.2976 310.9994 0012714  69.0421 291.2174 15.24782316179172
SUCHAI                  
1 42788U 17036Z   20257.78881607  .00001010  00000-0  44509-4 0  9995
2 42788  97.2939 309.9515 0013027  76.7839 283.4851 15.23966249179336
SKCUBE                  
1 42789U 17036AA  20257.71309192  .00000950  00000-0  42267-4 0  9994
2 42789  97.2934 309.7024 0012923  77.3996 282.8686 15.23793981179239
VZLUSAT-1               
1 42790U 17036AB  20257.89729221  .00001267  00000-0  53883-4 0  9992
2 42790  97.2961 310.9845 0012364  74.6510 285.6093 15.24760716179321
ROBUSTA-1B              
1 42792U 17036AD  20257.72137872  .00001024  00000-0  45078-4 0  9999
2 42792  97.2937 309.9899 0012503  77.7084 282.5553 15.23993268179267
CICERO 6                
1 42793U 17036AE  20257.87924772  .00000636  00000-0  29689-4 0  9997
2 42793  97.2910 309.4324 0011860  79.7707 280.4867 15.23277644179321
D-SAT                   
1 42794U 17036AF  20257.80974362  .00000132  00000-0  16564-4 0  9990
2 42794  97.4883 286.0649 0127630  70.3663 291.1279 14.91317385175866
CORVUS BC2              
1 42846U 17042X   20257.62518909  .00000222  00000-0  27026-4 0  9991
2 42846  97.5094 137.1487 0009383 353.3799   6.7295 14.92135691172553
CORVUS BC1              
1 42847U 17042Y   20257.74899925  .00000301  00000-0  34666-4 0  9991
2 42847  97.5097 137.4524 0008989 352.5729   7.5356 14.92237360172572
MIRATA                  
1 43015U 17073C   20257.78624090  .00000557  00000-0  47746-4 0  9992
2 43015  97.7124 166.6313 0253992 120.2003 242.4627 14.79779757152287
MAKERSAT 0              
1 43016U 17073D   20257.70696548  .00000418  00000-0  37181-4 0  9990
2 43016  97.7159 166.7167 0256917 121.7505 240.9020 14.79310132152252
DELLINGR (RBLE)         
1 43021U 98067NJ  20257.23443609  .00015539  00000-0  11540-3 0  9994
2 43021  51.6335 190.5004 0002112  69.5266 290.5959 15.73065757160679
AEROCUBE 7B (OCSD B)    
1 43042U 17071F   20257.72205892  .00003068  00000-0  74811-4 0  9992
2 43042  51.6391 353.2529 0004600  15.1463 344.9661 15.44194038156014
AEROCUBE 7C (OCSD C)    
1 43043U 17071G   20257.72692036  .00003108  00000-0  75731-4 0  9990
2 43043  51.6391 353.3006 0004857  18.8064 341.3101 15.44168408155984
CHEFSAT                 
1 43044U 17071H   20257.68258450  .00007023  00000-0  13261-3 0  9993
2 43044  51.6385 335.3187 0004738  24.3789 335.7423 15.49626359156223
ASGARDIA 1              
1 43049U 17071N   20257.78359502  .00002908  00000-0  71419-4 0  9996
2 43049  51.6403 352.2636 0002701  37.2604 322.8569 15.44178459155992
ISARA                   
1 43050U 17071P   20257.66269544  .00005674  00000-0  11327-3 0  9995
2 43050  51.6370 338.7905 0002737  35.8699 324.2472 15.48424231156178
PROPCUBE 2 (FAUNA)      
1 43052U 17071R   20257.74262684  .00003280  00000-0  78096-4 0  9992
2 43052  51.6396 350.5058 0002678  34.9728 325.1434 15.44679359156016
CORVUS BC3              
1 43118U 18004H   20257.77150186  .00000626  00000-0  29188-4 0  9997
2 43118  97.4372 327.2971 0011975 101.2151 259.0432 15.23485536148444
MICROMAS-2A             
1 43131U 18004W   20257.74604794  .00001446  00000-0  59806-4 0  9999
2 43131  97.4426 329.3289 0010805  99.6034 260.6426 15.25554125148551
SPACEBEE-4              
1 43139U 18004AE  20257.70201993  .00002189  00000-0  85400-4 0  9991
2 43139  97.4468 330.6900 0010141 100.4810 259.7572 15.26968285148622
SPACEBEE-3              
1 43140U 18004AF  20257.78842669  .00002612  00000-0  98376-4 0  9999
2 43140  97.4486 331.6092 0009824  98.9206 261.3146 15.27963945148684
SPACEBEE-2              
1 43141U 18004AG  20257.74947976  .00003003  00000-0  11156-3 0  9998
2 43141  97.4501 331.8881 0009765  98.3806 261.8540 15.28304082148691
SPACEBEE-1              
1 43142U 18004AH  20257.76108830  .00003223  00000-0  11809-3 0  9998
2 43142  97.4507 332.2158 0009707  98.0649 262.1692 15.28701303148709
CICERO 7                
1 43143U 18004AJ  20257.74558994  .00001353  00000-0  56135-4 0  9991
2 43143  97.4404 329.4893 0009002 106.9918 253.2308 15.25570883148570
GOMX-4B                 
1 43196U 18015E   20257.84219703  .00000312  00000-0  15606-4 0  9996
2 43196  97.4495  25.7649 0019473 148.5488 211.6918 15.24434645145363
GOMX-4A                 
1 43197U 18015F   20257.79787587  .00000657  00000-0  29468-4 0  9994
2 43197  97.4481  25.8422 0019737 150.1454 350.6043 15.24624189145372
UBAKUSAT                
1 43467U 98067NQ  20257.89700363  .00037018  00000-0  19075-3 0  9990
2 43467  51.6335 184.9845 0002490  92.6379 267.4908 15.80779444134079
CUBERRT                 
1 43546U 98067NU  20256.79904374  .00019231  00000-0  11453-3 0  9993
2 43546  51.6318 191.9489 0002741  79.0219 281.1090 15.77981989124014
TEMPEST-D               
1 43547U 98067NV  20257.63905511  .00005352  00000-0  61892-4 0  9994
2 43547  51.6348 226.3056 0005182  35.8664 324.2678 15.63711696123311
RAINCUBE                
1 43548U 98067NW  20257.30320293  .00042886  00000-0  23101-3 0  9990
2 43548  51.6287 196.7452 0004919  84.2335 275.9227 15.79724396124124
HALOSAT                 
1 43549U 98067NX  20257.80809870  .00041463  00000-0  23777-3 0  9998
2 43549  51.6328 195.7443 0004839  88.0986 272.0569 15.78351388123745
